FLOCK 4BE-15            
1 60491U 24149Z   25068.76805628  .00018034  00000+0  71805-3 0  9992
2 60491  97.4120 147.6065 0005523 117.1881 242.9920 15.25286817 31160
FLOCK 4BE-17            
1 60492U 24149AA  25068.73940718  .00018591  00000+0  75334-3 0  9999
2 60492  97.4191 147.7013 0004851 118.3417 241.8310 15.24694953 31157
FLOCK 4BE-22            
1 60494U 24149AC  25068.69993590  .00016728  00000+0  66872-3 0  9999
2 60494  97.4131 147.5872 0006463 123.9751 236.2102 15.25163375 31155
FLOCK 4BE-34            
1 60495U 24149AD  25068.77132386  .00020316  00000+0  78960-3 0  9996
2 60495  97.4180 147.7812 0006072 130.7645 229.4122 15.26066512 31163
FLOCK 4BE-32            
1 60497U 24149AF  25068.79201214  .00019509  00000+0  76850-3 0  9995
2 60497  97.4121 147.7311 0005941 119.3979 240.7853 15.25627057 31175
FLOCK 4BE-30            
1 60499U 24149AH  25068.73646034  .00020890  00000+0  82543-3 0  9995
2 60499  97.4195 147.8587 0004743 121.0532 239.1173 15.25515514 30549
FLOCK 4BE-11            
1 60501U 24149AK  25068.79837807  .00022143  00000+0  86827-3 0  9997
2 60501  97.4116 147.7237 0006188 127.9652 232.2146 15.25751200 31178
FLOCK 4BE-33            
1 60502U 24149AL  25068.64927752  .00017434  00000+0  70655-3 0  9990
2 60502  97.4130 147.5013 0006411 133.2850 226.8923 15.24695945 31145
FLOCK 4BE-10            
1 60503U 24149AM  25068.76911993  .00019102  00000+0  76886-3 0  9990
2 60503  97.4185 147.7950 0004876 130.2751 229.8914 15.24914713 31160
FLOCK 4BE-24            
1 60505U 24149AP  25068.75638800  .00020511  00000+0  80071-3 0  9991
2 60505  97.4121 147.7800 0006204 137.0038 223.1686 15.25915320 31176
TANAGER-1               
1 60507U 24149AR  25068.80647364  .00022404  00000+0  49765-3 0  9992
2 60507  97.4167 151.1780 0009588 261.4136  98.6026 15.43657874 31397
FLOCK 4BE-29            
1 60509U 24149AT  25068.78807243  .00022285  00000+0  85323-3 0  9992
2 60509  97.4196 148.0967 0004435 142.0666 218.0885 15.26554622 31187
FLOCK 4BE-2             
1 60511U 24149AV  25068.74963121  .00024457  00000+0  92510-3 0  9998
2 60511  97.4204 148.1618 0004503 139.8255 220.3317 15.26938113 31185
FLOCK 4BE-13            
1 60512U 24149AW  25068.79812905  .00021144  00000+0  81498-3 0  9990
2 60512  97.4111 147.8595 0006079 133.7714 226.4028 15.26334049 31180
FLOCK 4BE-27            
1 60513U 24149AX  25068.78828738  .00014934  00000+0  61475-3 0  9993
2 60513  97.4206 147.8088 0005959 146.2136 213.9482 15.24206894 31163
FLOCK 4BE-9             
1 60514U 24149AY  25068.75929009  .00019741  00000+0  77944-3 0  9993
2 60514  97.4181 147.9426 0004955 147.8702 212.2838 15.25550992 31174
