[{"OBJECT_NAME":"FLOCK 4BE-15","OBJECT_ID":"2024-149Z","EPOCH":"2025-03-09T18:26:00.062592","MEAN_MOTION":15.25286817,"ECCENTRICITY":0.0005523,"INCLINATION":97.412,"RA_OF_ASC_NODE":147.6065,"ARG_OF_PERICENTER":117.1881,"MEAN_ANOMALY":242.992,"EPHEMERIS_TYPE":0,"CLASSIFICATION_TYPE":"U","NORAD_CAT_ID":60491,"ELEMENT_SET_NO":999,"REV_AT_EPOCH":3116,"BSTAR":0.00071805,"MEAN_MOTION_DOT":0.00018034,"MEAN_MOTION_DDOT":0},{"OBJECT_NAME":"FLOCK 4BE-17","OBJECT_ID":"2024-149AA","EPOCH":"2025-03-09T17:44:44.780352","MEAN_MOTION":15.24694953,"ECCENTRICITY":0.0004851,"INCLINATION":97.4191,"RA_OF_ASC_NODE":147.7013,"ARG_OF_PERICENTER":118.3417,"MEAN_ANOMALY":241.831,"EPHEMERIS_TYPE":0,"CLASSIFICATION_TYPE":"U","NORAD_CAT_ID":60492,"ELEMENT_SET_NO":999,"REV_AT_EPOCH":3115,"BSTAR":0.00075334,"MEAN_MOTION_DOT":0.00018591,"MEAN_MOTION_DDOT":0},{"OBJECT_NAME":"FLOCK 4BE-22","OBJECT_ID":"2024-149AC","EPOCH":"2025-03-09T16:47:54.461760","MEAN_MOTION":15.25163375,"ECCENTRICITY":0.0006463,"INCLINATION":97.4131,"RA_OF_ASC_NODE":147.5872,"ARG_OF_PERICENTER":123.9751,"MEAN_ANOMALY":236.2102,"EPHEMERIS_TYPE":0,"CLASSIFICATION_TYPE":"U","NORAD_CAT_ID":60494,"ELEMENT_SET_NO":999,"REV_AT_EPOCH":3115,"BSTAR":0.00066872,"MEAN_MOTION_DOT":0.00016728,"MEAN_MOTION_DDOT":0},{"OBJECT_NAME":"FLOCK 4BE-34","OBJECT_ID":"2024-149AD","EPOCH":"2025-03-09T18:30:42.381504","MEAN_MOTION":15.26066512,"ECCENTRICITY":0.0006072,"INCLINATION":97.418,"RA_OF_ASC_NODE":147.7812,"ARG_OF_PERICENTER":130.7645,"MEAN_ANOMALY":229.4122,"EPHEMERIS_TYPE":0,"CLASSIFICATION_TYPE":"U","NORAD_CAT_ID":60495,"ELEMENT_SET_NO":999,"REV_AT_EPOCH":3116,"BSTAR":0.0007896,"MEAN_MOTION_DOT":0.00020316,"MEAN_MOTION_DDOT":0},{"OBJECT_NAME":"FLOCK 4BE-32","OBJECT_ID":"2024-149AF","EPOCH":"2025-03-09T19:00:29.848896","MEAN_MOTION":15.25627057,"ECCENTRICITY":0.0005941,"INCLINATION":97.4121,"RA_OF_ASC_NODE":147.7311,"ARG_OF_PERICENTER":119.3979,"MEAN_ANOMALY":240.7853,"EPHEMERIS_TYPE":0,"CLASSIFICATION_TYPE":"U","NORAD_CAT_ID":60497,"ELEMENT_SET_NO":999,"REV_AT_EPOCH":3117,"BSTAR":0.0007685,"MEAN_MOTION_DOT":0.00019509,"MEAN_MOTION_DDOT":0},{"OBJECT_NAME":"FLOCK 4BE-30","OBJECT_ID":"2024-149AH","EPOCH":"2025-03-09T17:40:30.173376","MEAN_MOTION":15.25515514,"ECCENTRICITY":0.0004743,"INCLINATION":97.4195,"RA_OF_ASC_NODE":147.8587,"ARG_OF_PERICENTER":121.0532,"MEAN_ANOMALY":239.1173,"EPHEMERIS_TYPE":0,"CLASSIFICATION_TYPE":"U","NORAD_CAT_ID":60499,"ELEMENT_SET_NO":999,"REV_AT_EPOCH":3054,"BSTAR":0.00082543,"MEAN_MOTION_DOT":0.0002089,"MEAN_MOTION_DDOT":0},{"OBJECT_NAME":"FLOCK 4BE-11","OBJECT_ID":"2024-149AK","EPOCH":"2025-03-09T19:09:39.865248","MEAN_MOTION":15.257512,"ECCENTRICITY":0.0006188,"INCLINATION":97.4116,"RA_OF_ASC_NODE":147.7237,"ARG_OF_PERICENTER":127.9652,"MEAN_ANOMALY":232.2146,"EPHEMERIS_TYPE":0,"CLASSIFICATION_TYPE":"U","NORAD_CAT_ID":60501,"ELEMENT_SET_NO":999,"REV_AT_EPOCH":3117,"BSTAR":0.00086827,"MEAN_MOTION_DOT":0.00022143,"MEAN_MOTION_DDOT":0},{"OBJECT_NAME":"FLOCK 4BE-33","OBJECT_ID":"2024-149AL","EPOCH":"2025-03-09T15:34:57.577728","MEAN_MOTION":15.24695945,"ECCENTRICITY":0.0006411,"INCLINATION":97.413,"RA_OF_ASC_NODE":147.5013,"ARG_OF_PERICENTER":133.285,"MEAN_ANOMALY":226.8923,"EPHEMERIS_TYPE":0,"CLASSIFICATION_TYPE":"U","NORAD_CAT_ID":60502,"ELEMENT_SET_NO":999,"REV_AT_EPOCH":3114,"BSTAR":0.00070655,"MEAN_MOTION_DOT":0.00017434,"MEAN_MOTION_DDOT":0},{"OBJECT_NAME":"FLOCK 4BE-10","OBJECT_ID":"2024-149AM","EPOCH":"2025-03-09T18:27:31.961952","MEAN_MOTION":15.24914713,"ECCENTRICITY":0.0004876,"INCLINATION":97.4185,"RA_OF_ASC_NODE":147.795,"ARG_OF_PERICENTER":130.2751,"MEAN_ANOMALY":229.8914,"EPHEMERIS_TYPE":0,"CLASSIFICATION_TYPE":"U","NORAD_CAT_ID":60503,"ELEMENT_SET_NO":999,"REV_AT_EPOCH":3116,"BSTAR":0.00076886,"MEAN_MOTION_DOT":0.00019102,"MEAN_MOTION_DDOT":0},{"OBJECT_NAME":"FLOCK 4BE-24","OBJECT_ID":"2024-149AP","EPOCH":"2025-03-09T18:09:11.923200","MEAN_MOTION":15.2591532,"ECCENTRICITY":0.0006204,"INCLINATION":97.4121,"RA_OF_ASC_NODE":147.78,"ARG_OF_PERICENTER":137.0038,"MEAN_ANOMALY":223.1686,"EPHEMERIS_TYPE":0,"CLASSIFICATION_TYPE":"U","NORAD_CAT_ID":60505,"ELEMENT_SET_NO":999,"REV_AT_EPOCH":3117,"BSTAR":0.00080071,"MEAN_MOTION_DOT":0.00020511,"MEAN_MOTION_DDOT":0},{"OBJECT_NAME":"TANAGER-1","OBJECT_ID":"2024-149AR","EPOCH":"2025-03-09T19:21:19.322496","MEAN_MOTION":15.43657874,"ECCENTRICITY":0.0009588,"INCLINATION":97.4167,"RA_OF_ASC_NODE":151.178,"ARG_OF_PERICENTER":261.4136,"MEAN_ANOMALY":98.6026,"EPHEMERIS_TYPE":0,"CLASSIFICATION_TYPE":"U","NORAD_CAT_ID":60507,"ELEMENT_SET_NO":999,"REV_AT_EPOCH":3139,"BSTAR":0.00049765,"MEAN_MOTION_DOT":0.00022404,"MEAN_MOTION_DDOT":0},{"OBJECT_NAME":"FLOCK 4BE-29","OBJECT_ID":"2024-149AT","EPOCH":"2025-03-09T18:54:49.457952","MEAN_MOTION":15.26554622,"ECCENTRICITY":0.0004435,"INCLINATION":97.4196,"RA_OF_ASC_NODE":148.0967,"ARG_OF_PERICENTER":142.0666,"MEAN_ANOMALY":218.0885,"EPHEMERIS_TYPE":0,"CLASSIFICATION_TYPE":"U","NORAD_CAT_ID":60509,"ELEMENT_SET_NO":999,"REV_AT_EPOCH":3118,"BSTAR":0.00085323,"MEAN_MOTION_DOT":0.00022285,"MEAN_MOTION_DDOT":0},{"OBJECT_NAME":"FLOCK 4BE-2","OBJECT_ID":"2024-149AV","EPOCH":"2025-03-09T17:59:28.136544","MEAN_MOTION":15.26938113,"ECCENTRICITY":0.0004503,"INCLINATION":97.4204,"RA_OF_ASC_NODE":148.1618,"ARG_OF_PERICENTER":139.8255,"MEAN_ANOMALY":220.3317,"EPHEMERIS_TYPE":0,"CLASSIFICATION_TYPE":"U","NORAD_CAT_ID":60511,"ELEMENT_SET_NO":999,"REV_AT_EPOCH":3118,"BSTAR":0.0009251,"MEAN_MOTION_DOT":0.00024457,"MEAN_MOTION_DDOT":0},{"OBJECT_NAME":"FLOCK 4BE-13","OBJECT_ID":"2024-149AW","EPOCH":"2025-03-09T19:09:18.349920","MEAN_MOTION":15.26334049,"ECCENTRICITY":0.0006079,"INCLINATION":97.4111,"RA_OF_ASC_NODE":147.8595,"ARG_OF_PERICENTER":133.7714,"MEAN_ANOMALY":226.4028,"EPHEMERIS_TYPE":0,"CLASSIFICATION_TYPE":"U","NORAD_CAT_ID":60512,"ELEMENT_SET_NO":999,"REV_AT_EPOCH":3118,"BSTAR":0.00081498,"MEAN_MOTION_DOT":0.00021144,"MEAN_MOTION_DDOT":0},{"OBJECT_NAME":"FLOCK 4BE-27","OBJECT_ID":"2024-149AX","EPOCH":"2025-03-09T18:55:08.029632","MEAN_MOTION":15.24206894,"ECCENTRICITY":0.0005959,"INCLINATION":97.4206,"RA_OF_ASC_NODE":147.8088,"ARG_OF_PERICENTER":146.2136,"MEAN_ANOMALY":213.9482,"EPHEMERIS_TYPE":0,"CLASSIFICATION_TYPE":"U","NORAD_CAT_ID":60513,"ELEMENT_SET_NO":999,"REV_AT_EPOCH":3116,"BSTAR":0.00061475,"MEAN_MOTION_DOT":0.00014934,"MEAN_MOTION_DDOT":0},{"OBJECT_NAME":"FLOCK 4BE-9","OBJECT_ID":"2024-149AY","EPOCH":"2025-03-09T18:13:22.663776","MEAN_MOTION":15.25550992,"ECCENTRICITY":0.0004955,"INCLINATION":97.4181,"RA_OF_ASC_NODE":147.9426,"ARG_OF_PERICENTER":147.8702,"MEAN_ANOMALY":212.2838,"EPHEMERIS_TYPE":0,"CLASSIFICATION_TYPE":"U","NORAD_CAT_ID":60514,"ELEMENT_SET_NO":999,"REV_AT_EPOCH":3117,"BSTAR":0.00077944,"MEAN_MOTION_DOT":0.00019741,"MEAN_MOTION_DDOT":0}]
